[{"OBJECT_NAME":"SHIJIAN-30C (SJ-30C)","OBJECT_ID":"2025-266C","EPOCH":"2026-03-09T22:18:08.951328","MEAN_MOTION":15.15375128,"ECCENTRICITY":0.00100456,"INCLINATION":51.7965,"RA_OF_ASC_NODE":284.3719,"ARG_OF_PERICENTER":284.8645,"MEAN_ANOMALY":75.1218,"EPHEMERIS_TYPE":0,"CLASSIFICATION_TYPE":"U","NORAD_CAT_ID":66547,"ELEMENT_SET_NO":999,"REV_AT_EPOCH":1680,"BSTAR":0.00059078911,"MEAN_MOTION_DOT":0.00011009,"MEAN_MOTION_DDOT":0},{"OBJECT_NAME":"SL-3 DEB","OBJECT_ID":"1988-032D","EPOCH":"2026-03-09T21:36:49.536576","MEAN_MOTION":15.21301321,"ECCENTRICITY":0.00302448,"INCLINATION":97.5102,"RA_OF_ASC_NODE":52.3226,"ARG_OF_PERICENTER":221.5268,"MEAN_ANOMALY":138.367,"EPHEMERIS_TYPE":0,"CLASSIFICATION_TYPE":"U","NORAD_CAT_ID":25655,"ELEMENT_SET_NO":999,"REV_AT_EPOCH":5124,"BSTAR":0.00031081119,"MEAN_MOTION_DOT":6.967e-5,"MEAN_MOTION_DDOT":0}]
